ONEWEB-0512             
1 54130U 22138T   26008.94143355  .00000033  00000+0  49620-4 0  9999
2 54130  87.9224 336.6627 0001895  70.7603 289.3734 13.19724329155802
ONEWEB-0513             
1 54131U 22138U   26009.16352597  .00000028  00000+0  38412-4 0  9996
2 54131  87.9237 336.5777 0002323  62.5419 297.5950 13.20260874155738
ONEWEB-0514             
1 54132U 22138V   26009.26050071  .00000042  00000+0  71658-4 0  9995
2 54132  87.9235 336.5861 0001821  85.1386 274.9954 13.19725899155865
ONEWEB-0515             
1 54133U 22138W   26009.25687832  .00000086  00000+0  18014-3 0  9990
2 54133  87.9233 306.1258 0001306 107.3388 252.7888 13.20772586158325
ONEWEB-0516             
1 54134U 22138X   26009.31103968  .00000091  00000+0  19546-3 0  9998
2 54134  87.9218 336.5926 0001655  79.9080 280.2240 13.19725052155877
ONEWEB-0517             
1 54135U 22138Y   26009.29050912  .00000028  00000+0  38032-4 0  9998
2 54135  87.9232 336.5810 0002084  81.9176 278.2193 13.19725889155874
ONEWEB-0518             
1 54136U 22138Z   26009.30946281  .00000091  00000+0  19404-3 0  9995
2 54136  87.9220 336.5945 0001752  76.2524 283.8804 13.19726716155877
ONEWEB-0519             
1 54137U 22138AA  26009.18309585  .00000009  00000+0 -90963-5 0  9993
2 54137  87.9232 336.5925 0001997  80.6307 279.5051 13.19723834155861
